37192,GLOBALSTAR M075,2010,114.08,700.0,+,51.99,Active,1,LEO,Kazakhstan,Globalstar,Commercial,Communications,Soyuz,1 37192U 10054E   25048.60003705 -.00000091  00000+0  73571-4 0  9999,2 37192  51.9932 185.6510 0000939 107.1907 334.0183 12.62272958660744,12.62272958,9.39e-05,LEO
37193,GLOBALSTAR M073,2010,114.08,700.0,+,52.01,Active,1,LEO,Kazakhstan,Globalstar,Commercial,Communications,Soyuz,1 37193U 10054F   25048.61875233 -.00000079  00000+0  14044-3 0  9999,2 37193  52.0055  99.3254 0000623 108.5331  55.8204 12.62263410662731,12.6226341,6.23e-05,LEO
37739,GLOBALSTAR M083,2011,114.08,700.0,+,51.99,Active,1,LEO,Kazakhstan,Globalstar,Commercial,Communications,Soyuz,1 37739U 11033A   25048.46427234 -.00000105  00000+0 -55363-5 0  9992,2 37739  51.9872  48.6866 0000280  69.7303  53.9718 12.62264383631739,12.62264383,2.8e-05,LEO
37740,GLOBALSTAR M088,2011,114.08,700.0,+,51.98,Active,1,LEO,Kazakhstan,Globalstar,Commercial,Communications,Soyuz,1 37740U 11033B   25048.44847486 -.00000077  00000+0  14976-3 0  9997,2 37740  51.9753 314.3304 0000636  60.3679 111.6743 12.62262894627276,12.62262894,6.36e-05,LEO
37741,GLOBALSTAR M091,2011,114.08,700.0,+,52.0,Active,1,LEO,Kazakhstan,Globalstar,Commercial,Communications,Soyuz,1 37741U 11033C   25048.83782050 -.00000091  00000+0  71184-4 0  9997,2 37741  51.9989 276.4880 0000761  57.5802  23.7022 12.62264868628378,12.62264868,7.61e-05,LEO
37742,GLOBALSTAR M085,2011,114.08,700.0,+,51.98,Active,1,LEO,Kazakhstan,Globalstar,Commercial,Communications,Soyuz,1 37742U 11033D   25048.49396557 -.00000106  00000+0 -10620-4 0  9999,2 37742  51.9847 228.6767 0000861  78.6915 299.2639 12.62265442628581,12.62265442,8.61e-05,LEO
37743,GLOBALSTAR M081,2011,114.08,700.0,+,51.99,Active,1,LEO,Kazakhstan,Globalstar,Commercial,Communications,Soyuz,1 37743U 11033E   25048.86347346 -.00000092  00000+0  63229-4 0  9999,2 37743  51.9932 230.2634 0001070  78.4517  60.2754 12.62260857629151,12.62260857,0.000107,LEO
37744,GLOBALSTAR M089,2011,114.08,700.0,+,51.99,Active,1,LEO,Kazakhstan,Globalstar,Commercial,Communications,Soyuz,1 37744U 11033F   25048.63807725 -.00000100  00000+0  22995-4 0  9992,2 37744  51.9915 185.1998 0001120 108.6453 264.7196 12.62266176629594,12.62266176,0.000112,LEO
